[{"OBJECT_NAME":"LEMUR-2-ANDIS","OBJECT_ID":"2017-042P","EPOCH":"2026-03-09T13:25:33.116448","MEAN_MOTION":15.30557934,"ECCENTRICITY":0.0009101,"INCLINATION":97.3659,"RA_OF_ASC_NODE":249.795,"ARG_OF_PERICENTER":4.3248,"MEAN_ANOMALY":355.807,"EPHEMERIS_TYPE":0,"CLASSIFICATION_TYPE":"U","NORAD_CAT_ID":42838,"ELEMENT_SET_NO":999,"REV_AT_EPOCH":47319,"BSTAR":0.00079875,"MEAN_MOTION_DOT":0.00023598,"MEAN_MOTION_DDOT":0},{"OBJECT_NAME":"STARLINK-31611","OBJECT_ID":"2024-057F","EPOCH":"2026-03-08T15:19:59.022048","MEAN_MOTION":15.27577803,"ECCENTRICITY":0.00014261,"INCLINATION":42.9971,"RA_OF_ASC_NODE":193.4134,"ARG_OF_PERICENTER":288.4796,"MEAN_ANOMALY":71.5901,"EPHEMERIS_TYPE":0,"CLASSIFICATION_TYPE":"U","NORAD_CAT_ID":59325,"ELEMENT_SET_NO":999,"REV_AT_EPOCH":10967,"BSTAR":2.489476e-6,"MEAN_MOTION_DOT":-1.94e-6,"MEAN_MOTION_DDOT":0}]
