LEMUR-2-ANDIS           
1 42838U 17042P   26068.55941107  .00023598  00000+0  79875-3 0  9998
2 42838  97.3659 249.7950 0009101   4.3248 355.8070 15.30557934473198
STARLINK-31611          
1 59325U 24057F   26067.63887757 -.00000194  00000+0  24895-5 0  9991
2 59325  42.9971 193.4134 0001426 288.4796  71.5901 15.27577803109671
